{
    "links": {
        "self": "http://www.neowsapp.com/rest/v1/neo/3144152?api_key=iIulBulltgU6a56xZRHN4H3l9WmuAYTsLGpBGhQ2"
    },
    "id": "3144152",
    "neo_reference_id": "3144152",
    "name": "(2002 XS14)",
    "designation": "2002 XS14",
    "nasa_jpl_url": "http://ssd.jpl.nasa.gov/sbdb.cgi?sstr=3144152",
    "absolute_magnitude_h": 24.2,
    "estimated_diameter": {
        "kilometers": {
            "estimated_diameter_min": 0.0384197891,
            "estimated_diameter_max": 0.0859092601
        },
        "meters": {
            "estimated_diameter_min": 38.4197891064,
            "estimated_diameter_max": 85.9092601232
        },
        "miles": {
            "estimated_diameter_min": 0.0238729428,
            "estimated_diameter_max": 0.0533815229
        },
        "feet": {
            "estimated_diameter_min": 126.0491808919,
            "estimated_diameter_max": 281.8545369825
        }
    },
    "is_potentially_hazardous_asteroid": false,
    "close_approach_data": [
        {
            "close_approach_date": "1985-10-28",
            "close_approach_date_full": "1985-Oct-28 11:49",
            "epoch_date_close_approach": 499348140000,
            "relative_velocity": {
                "kilometers_per_second": "16.3831661332",
                "kilometers_per_hour": "58979.3980794448",
                "miles_per_hour": "36647.5043233083"
            },
            "miss_distance": {
                "astronomical": "0.3389965946",
                "lunar": "131.8696752994",
                "kilometers": "50713168.489413502",
                "miles": "31511701.6822982476"
            },
            "orbiting_body": "Earth"
        },
        {
            "close_approach_date": "2002-12-17",
            "close_approach_date_full": "2002-Dec-17 16:47",
            "epoch_date_close_approach": 1040143620000,
            "relative_velocity": {
                "kilometers_per_second": "6.525230701",
                "kilometers_per_hour": "23490.8305235715",
                "miles_per_hour": "14596.2885550492"
            },
            "miss_distance": {
                "astronomical": "0.0321528439",
                "lunar": "12.5074562771",
                "kilometers": "4809996.961882493",
                "miles": "2988793.5199166834"
            },
            "orbiting_body": "Earth"
        },
        {
            "close_approach_date": "2020-02-09",
            "close_approach_date_full": "2020-Feb-09 22:46",
            "epoch_date_close_approach": 1581288360000,
            "relative_velocity": {
                "kilometers_per_second": "20.7134628834",
                "kilometers_per_hour": "74568.4663802994",
                "miles_per_hour": "46333.9451239144"
            },
            "miss_distance": {
                "astronomical": "0.4774362377",
                "lunar": "185.7226964653",
                "kilometers": "71423444.220733699",
                "miles": "44380470.2890110862"
            },
            "orbiting_body": "Earth"
        },
        {
            "close_approach_date": "2022-10-23",
            "close_approach_date_full": "2022-Oct-23 00:51",
            "epoch_date_close_approach": 1666486260000,
            "relative_velocity": {
                "kilometers_per_second": "19.221121055",
                "kilometers_per_hour": "69196.0357979006",
                "miles_per_hour": "42995.7256878678"
            },
            "miss_distance": {
                "astronomical": "0.4268297806",
                "lunar": "166.0367846534",
                "kilometers": "63852826.030327322",
                "miles": "39676306.2804761636"
            },
            "orbiting_body": "Earth"
        }
    ],
    "orbital_data": {
        "orbit_id": "10",
        "orbit_determination_date": "2017-04-06 09:14:32",
        "first_observation_date": "2002-12-06",
        "last_observation_date": "2003-01-30",
        "data_arc_in_days": 55,
        "observations_used": 67,
        "orbit_uncertainty": "6",
        "minimum_orbit_intersection": ".0248105",
        "jupiter_tisserand_invariant": "3.666",
        "epoch_osculation": "2459000.5",
        "eccentricity": ".4982550654000702",
        "semi_major_axis": "2.007458303905791",
        "inclination": "4.487769103699438",
        "ascending_node_longitude": "255.16698856",
        "orbital_period": "1038.88679738972",
        "perihelion_distance": "1.007232035405297",
        "perihelion_argument": "189.1272617453907",
        "aphelion_distance": "3.007684572406285",
        "perihelion_time": "2458864.012565867797",
        "mean_anomaly": "47.29627560100845",
        "mean_motion": ".3465247617974613",
        "equinox": "J2000",
        "orbit_class": {
            "orbit_class_type": "APO",
            "orbit_class_description": "Near-Earth asteroid orbits which cross the Earth’s orbit similar to that of 1862 Apollo",
            "orbit_class_range": "a (semi-major axis) > 1.0 AU; q (perihelion) < 1.017 AU"
        }
    },
    "is_sentry_object": false
}